[{"OBJECT_NAME":"STARLINK-30827","OBJECT_ID":"2023-167W","EPOCH":"2026-03-08T14:30:23.603040","MEAN_MOTION":15.27576838,"ECCENTRICITY":0.00013335,"INCLINATION":43.001,"RA_OF_ASC_NODE":149.1353,"ARG_OF_PERICENTER":267.1665,"MEAN_ANOMALY":92.9034,"EPHEMERIS_TYPE":0,"CLASSIFICATION_TYPE":"U","NORAD_CAT_ID":58195,"ELEMENT_SET_NO":999,"REV_AT_EPOCH":13082,"BSTAR":-8.3947998e-5,"MEAN_MOTION_DOT":-2.571e-5,"MEAN_MOTION_DDOT":0},{"OBJECT_NAME":"CZ-4B DEB","OBJECT_ID":"2010-051E","EPOCH":"2026-03-08T22:01:50.125728","MEAN_MOTION":15.23766972,"ECCENTRICITY":0.00561086,"INCLINATION":97.769,"RA_OF_ASC_NODE":240.5013,"ARG_OF_PERICENTER":301.1291,"MEAN_ANOMALY":58.4449,"EPHEMERIS_TYPE":0,"CLASSIFICATION_TYPE":"U","NORAD_CAT_ID":38184,"ELEMENT_SET_NO":999,"REV_AT_EPOCH":82066,"BSTAR":0.0024566319,"MEAN_MOTION_DOT":0.00062123,"MEAN_MOTION_DDOT":0}]
